start=new Date('2022-11-26T00:00:00.000Z').valueOf();
sats=[{"ECCENTRICITY":"0.00022070","PERIAPSIS":"538.213","GP_ID":"218821422","DECAY_DATE":null,"MEAN_MOTION":"15.08841729","NORAD_CAT_ID":"52297","INCLINATION":"53.2176","MEAN_ANOMALY":"323.4672","BSTAR":"0.00013921000000","RA_OF_ASC_NODE":"86.4579","MEAN_ELEMENT_THEORY":"SGP4","FILE":"3670141","TLE_LINE2":"2 52297  53.2176  86.4579 0002207  36.6470 323.4672 15.08841729 33331","TLE_LINE1":"1 52297U 22041AN  22329.61569325  .00001928  00000-0  13921-3 0  9998","ELEMENT_SET_NO":"999","COUNTRY_CODE":"US","SEMIMAJOR_AXIS":"6917.875","APOAPSIS":"541.267","CENTER_NAME":"EARTH","EPOCH":"2022-11-25T14:46:35.896800","OBJECT_TYPE":"PAYLOAD","CLASSIFICATION_TYPE":"U","ARG_OF_PERICENTER":"36.6470","OBJECT_ID":"2022-041AN","SITE":"AFETR","EPHEMERIS_TYPE":"0","MEAN_MOTION_DDOT":"0.0000000000000","OBJECT_NAME":"STARLINK-3758","REF_FRAME":"TEME","LAUNCH_DATE":"2022-04-21","MEAN_MOTION_DOT":"0.00001928","PERIOD":"95.437","REV_AT_EPOCH":"3333","TIME_SYSTEM":"UTC","RCS_SIZE":"LARGE"},{"REV_AT_EPOCH":"3333","TIME_SYSTEM":"UTC","RCS_SIZE":"LARGE","OBJECT_NAME":"STARLINK-3760","MEAN_MOTION_DDOT":"0.0000000000000","REF_FRAME":"TEME","MEAN_MOTION_DOT":"0.00001006","LAUNCH_DATE":"2022-04-21","PERIOD":"95.437","OBJECT_TYPE":"PAYLOAD","EPOCH":"2022-11-25T14:14:48.401664","ARG_OF_PERICENTER":"34.5855","CLASSIFICATION_TYPE":"U","SITE":"AFETR","EPHEMERIS_TYPE":"0","OBJECT_ID":"2022-041AP","CENTER_NAME":"EARTH","SEMIMAJOR_AXIS":"6917.859","APOAPSIS":"541.213","BSTAR":"0.00008130700000","RA_OF_ASC_NODE":"86.5692","FILE":"3670141","MEAN_ELEMENT_THEORY":"SGP4","TLE_LINE2":"2 52298  53.2206  86.5692 0002152  34.5855 325.5277 15.08847036 33337","ELEMENT_SET_NO":"999","TLE_LINE1":"1 52298U 22041AP  22329.59361576  .00001006  00000-0  81307-4 0  9995","COUNTRY_CODE":"US","MEAN_MOTION":"15.08847036","NORAD_CAT_ID":"52298","INCLINATION":"53.2206","MEAN_ANOMALY":"325.5277","ECCENTRICITY":"0.00021520","PERIAPSIS":"538.235","DECAY_DATE":null,"GP_ID":"218821672"},{"MEAN_MOTION":"15.08842695","NORAD_CAT_ID":"52299","INCLINATION":"53.2195","MEAN_ANOMALY":"294.5120","ECCENTRICITY":"0.00014840","PERIAPSIS":"538.711","GP_ID":"218822415","DECAY_DATE":null,"SEMIMAJOR_AXIS":"6917.872","APOAPSIS":"540.764","BSTAR":"0.00013126000000","RA_OF_ASC_NODE":"85.9349","FILE":"3670141","MEAN_ELEMENT_THEORY":"SGP4","TLE_LINE2":"2 52299  53.2195  85.9349 0001484  65.6027 294.5120 15.08842695 33350","TLE_LINE1":"1 52299U 22041AQ  22329.73344741  .00001802  00000-0  13126-3 0  9994","ELEMENT_SET_NO":"999","COUNTRY_CODE":"US","EPOCH":"2022-11-25T17:36:09.856224","OBJECT_TYPE":"PAYLOAD","CLASSIFICATION_TYPE":"U","ARG_OF_PERICENTER":"65.6027","OBJECT_ID":"2022-041AQ","SITE":"AFETR","EPHEMERIS_TYPE":"0","CENTER_NAME":"EARTH","REV_AT_EPOCH":"3335","TIME_SYSTEM":"UTC","RCS_SIZE":"LARGE","OBJECT_NAME":"STARLINK-3759","MEAN_MOTION_DDOT":"0.0000000000000","REF_FRAME":"TEME","MEAN_MOTION_DOT":"0.00001802","LAUNCH_DATE":"2022-04-21","PERIOD":"95.437"},{"PERIAPSIS":"538.145","ECCENTRICITY":"0.00023050","DECAY_DATE":null,"GP_ID":"218822664","MEAN_MOTION":"15.08841930","MEAN_ANOMALY":"323.7345","NORAD_CAT_ID":"52300","INCLINATION":"53.2218","MEAN_ELEMENT_THEORY":"SGP4","FILE":"3670141","BSTAR":"0.00005082700000","RA_OF_ASC_NODE":"86.3080","COUNTRY_CODE":"US","TLE_LINE1":"1 52300U 22041AR  22329.65249580  .00000521  00000-0  50827-4 0  9990","TLE_LINE2":"2 52300  53.2218  86.3080 0002305  36.3804 323.7345 15.08841930 34566","ELEMENT_SET_NO":"999","APOAPSIS":"541.334","SEMIMAJOR_AXIS":"6917.874","CENTER_NAME":"EARTH","OBJECT_TYPE":"PAYLOAD","EPOCH":"2022-11-25T15:39:35.637120","SITE":"AFETR","EPHEMERIS_TYPE":"0","OBJECT_ID":"2022-041AR","ARG_OF_PERICENTER":"36.3804","CLASSIFICATION_TYPE":"U","REF_FRAME":"TEME","MEAN_MOTION_DDOT":"0.0000000000000","OBJECT_NAME":"STARLINK-3769","PERIOD":"95.437","MEAN_MOTION_DOT":"0.00000521","LAUNCH_DATE":"2022-04-21","TIME_SYSTEM":"UTC","REV_AT_EPOCH":"3456","RCS_SIZE":"LARGE"},{"MEAN_MOTION":"15.08845432","NORAD_CAT_ID":"52301","INCLINATION":"53.2181","MEAN_ANOMALY":"317.7731","ECCENTRICITY":"0.00022970","PERIAPSIS":"538.140","DECAY_DATE":null,"GP_ID":"218820923","SEMIMAJOR_AXIS":"6917.864","APOAPSIS":"541.318","BSTAR":"0.00003460000000","RA_OF_ASC_NODE":"86.5250","FILE":"3670141","MEAN_ELEMENT_THEORY":"SGP4","ELEMENT_SET_NO":"999","TLE_LINE2":"2 52301  53.2181  86.5250 0002297  42.3438 317.7731 15.08845432 33334","TLE_LINE1":"1 52301U 22041AS  22329.60464842  .00000262  00000-0  34600-4 0  9999","COUNTRY_CODE":"US","OBJECT_TYPE":"PAYLOAD","EPOCH":"2022-11-25T14:30:41.623488","ARG_OF_PERICENTER":"42.3438","CLASSIFICATION_TYPE":"U","EPHEMERIS_TYPE":"0","SITE":"AFETR","OBJECT_ID":"2022-041AS","CENTER_NAME":"EARTH","REV_AT_EPOCH":"3333","TIME_SYSTEM":"UTC","RCS_SIZE":"LARGE","MEAN_MOTION_DDOT":"0.0000000000000","OBJECT_NAME":"STARLINK-3768","REF_FRAME":"TEME","MEAN_MOTION_DOT":"0.00000262","LAUNCH_DATE":"2022-04-21","PERIOD":"95.437"},{"RCS_SIZE":"LARGE","REV_AT_EPOCH":"3349","TIME_SYSTEM":"UTC","MEAN_MOTION_DOT":"-0.00012200","LAUNCH_DATE":"2022-04-21","PERIOD":"95.434","OBJECT_NAME":"STARLINK-3564","MEAN_MOTION_DDOT":"0.0000000000000","REF_FRAME":"TEME","CLASSIFICATION_TYPE":"U","ARG_OF_PERICENTER":"53.4004","OBJECT_ID":"2022-041AT","EPHEMERIS_TYPE":"0","SITE":"AFETR","EPOCH":"2022-11-25T18:35:45.622176","OBJECT_TYPE":"PAYLOAD","CENTER_NAME":"EARTH","SEMIMAJOR_AXIS":"6917.722","APOAPSIS":"540.881","ELEMENT_SET_NO":"999","TLE_LINE2":"2 52302  53.2172  75.7426 0001870  53.4004 306.7160 15.08891781 33497","TLE_LINE1":"1 52302U 22041AT  22329.77483359 -.00012200  00000-0 -74862-3 0  9992","COUNTRY_CODE":"US","BSTAR":"-0.00074862000000","RA_OF_ASC_NODE":"75.7426","FILE":"3670141","MEAN_ELEMENT_THEORY":"SGP4","NORAD_CAT_ID":"52302","INCLINATION":"53.2172","MEAN_ANOMALY":"306.7160","MEAN_MOTION":"15.08891781","GP_ID":"218821173","DECAY_DATE":null,"ECCENTRICITY":"0.00018700","PERIAPSIS":"538.294"},{"RCS_SIZE":"LARGE","TIME_SYSTEM":"UTC","REV_AT_EPOCH":"3457","PERIOD":"95.438","MEAN_MOTION_DOT":"0.00001579","LAUNCH_DATE":"2022-04-21","REF_FRAME":"TEME","OBJECT_NAME":"STARLINK-3742","MEAN_MOTION_DDOT":"0.0000000000000","SITE":"AFETR","EPHEMERIS_TYPE":"0","OBJECT_ID":"2022-041AU","ARG_OF_PERICENTER":"40.5048","CLASSIFICATION_TYPE":"U","OBJECT_TYPE":"PAYLOAD","EPOCH":"2022-11-25T17:20:16.681920","CENTER_NAME":"EARTH","APOAPSIS":"541.098","SEMIMAJOR_AXIS":"6917.882","COUNTRY_CODE":"US","TLE_LINE2":"2 52303  53.2194  85.9822 0001953  40.5048 319.6089 15.08839341 34579","ELEMENT_SET_NO":"999","TLE_LINE1":"1 52303U 22041AU  22329.72241530  .00001579  00000-0  11726-3 0  9996","FILE":"3670141","MEAN_ELEMENT_THEORY":"SGP4","BSTAR":"0.00011726000000","RA_OF_ASC_NODE":"85.9822","MEAN_ANOMALY":"319.6089","NORAD_CAT_ID":"52303","INCLINATION":"53.2194","MEAN_MOTION":"15.08839341","DECAY_DATE":null,"GP_ID":"218821917","PERIAPSIS":"538.396","ECCENTRICITY":"0.00019530"},{"BSTAR":"-0.00009329100000","RA_OF_ASC_NODE":"76.6556","MEAN_ELEMENT_THEORY":"SGP4","FILE":"3670141","TLE_LINE2":"2 52304  53.2180  76.6556 0001915  54.4482 305.6689 15.08842607 33467","TLE_LINE1":"1 52304U 22041AV  22329.57244660 -.00001773  00000-0 -93291-4 0  9993","ELEMENT_SET_NO":"999","COUNTRY_CODE":"US","SEMIMAJOR_AXIS":"6917.872","APOAPSIS":"541.062","ECCENTRICITY":"0.00019150","PERIAPSIS":"538.413","GP_ID":"218822165","DECAY_DATE":null,"MEAN_MOTION":"15.08842607","NORAD_CAT_ID":"52304","INCLINATION":"53.2180","MEAN_ANOMALY":"305.6689","MEAN_MOTION_DDOT":"0.0000000000000","OBJECT_NAME":"STARLINK-3744","REF_FRAME":"TEME","LAUNCH_DATE":"2022-04-21","MEAN_MOTION_DOT":"-0.00001773","PERIOD":"95.437","REV_AT_EPOCH":"3346","TIME_SYSTEM":"UTC","RCS_SIZE":"LARGE","CENTER_NAME":"EARTH","EPOCH":"2022-11-25T13:44:19.386240","OBJECT_TYPE":"PAYLOAD","CLASSIFICATION_TYPE":"U","ARG_OF_PERICENTER":"54.4482","OBJECT_ID":"2022-041AV","SITE":"AFETR","EPHEMERIS_TYPE":"0"},{"EPOCH":"2022-11-25T15:35:40.444224","OBJECT_TYPE":"PAYLOAD","OBJECT_ID":"2022-041AW","SITE":"AFETR","EPHEMERIS_TYPE":"0","CLASSIFICATION_TYPE":"U","ARG_OF_PERICENTER":"44.0456","CENTER_NAME":"EARTH","TIME_SYSTEM":"UTC","REV_AT_EPOCH":"3334","RCS_SIZE":"LARGE","REF_FRAME":"TEME","OBJECT_NAME":"STARLINK-3724","MEAN_MOTION_DDOT":"0.0000000000000","PERIOD":"95.438","MEAN_MOTION_DOT":"0.00001661","LAUNCH_DATE":"2022-04-21","MEAN_MOTION":"15.08838837","MEAN_ANOMALY":"316.0684","NORAD_CAT_ID":"52305","INCLINATION":"53.2191","PERIAPSIS":"538.468","ECCENTRICITY":"0.00018520","GP_ID":"218821423","DECAY_DATE":null,"APOAPSIS":"541.030","SEMIMAJOR_AXIS":"6917.884","MEAN_ELEMENT_THEORY":"SGP4","FILE":"3670141","BSTAR":"0.00012246000000","RA_OF_ASC_NODE":"86.3190","COUNTRY_CODE":"US","ELEMENT_SET_NO":"999","TLE_LINE2":"2 52305  53.2191  86.3190 0001852  44.0456 316.0684 15.08838837 33346","TLE_LINE1":"1 52305U 22041AW  22329.64977366  .00001661  00000-0  12246-3 0  9992"},{"TIME_SYSTEM":"UTC","REV_AT_EPOCH":"3468","RCS_SIZE":"LARGE","REF_FRAME":"TEME","OBJECT_NAME":"STARLINK-3747","MEAN_MOTION_DDOT":"0.0000000000000","PERIOD":"95.438","LAUNCH_DATE":"2022-04-21","MEAN_MOTION_DOT":"0.00001532","EPOCH":"2022-11-25T13:39:02.295648","OBJECT_TYPE":"PAYLOAD","OBJECT_ID":"2022-041AX","EPHEMERIS_TYPE":"0","SITE":"AFETR","CLASSIFICATION_TYPE":"U","ARG_OF_PERICENTER":"40.5633","CENTER_NAME":"EARTH","APOAPSIS":"541.155","SEMIMAJOR_AXIS":"6917.888","MEAN_ELEMENT_THEORY":"SGP4","FILE":"3670141","BSTAR":"0.00011436000000","RA_OF_ASC_NODE":"76.6664","COUNTRY_CODE":"US","TLE_LINE2":"2 52306  53.2178  76.6664 0002026  40.5633 319.5510 15.08837394 34683","TLE_LINE1":"1 52306U 22041AX  22329.56877657  .00001532  00000-0  11436-3 0  9993","ELEMENT_SET_NO":"999","MEAN_MOTION":"15.08837394","MEAN_ANOMALY":"319.5510","NORAD_CAT_ID":"52306","INCLINATION":"53.2178","PERIAPSIS":"538.352","ECCENTRICITY":"0.00020260","GP_ID":"218821673","DECAY_DATE":null}];
